{
  "norad_id": 56310,
  "name": "TELEOS-2",
  "history": [
    {
      "epoch": "2026-03-27T05:47:56.704992Z",
      "apogee_km": 578.6919892965561,
      "perigee_km": 577.5330781242392,
      "latitude_deg": -1.3471140201494217e-06,
      "longitude_deg": 169.19767206064788,
      "height_km": 575.5839007100325,
      "semi_major_axis_km": 6956.249533710397,
      "eccentricity": 8.33e-05,
      "inclination_deg": 9.989,
      "raan_deg": 80.8632,
      "arg_perigee_deg": 221.662,
      "mean_anomaly_deg": 138.353,
      "mean_motion_rev_day": 14.96373585
    },
    {
      "epoch": "2026-03-31T13:46:27.889824Z",
      "apogee_km": 578.8115374588288,
      "perigee_km": 577.5162742301618,
      "latitude_deg": 3.7057247916732453e-06,
      "longitude_deg": 13.724649823878922,
      "height_km": 575.2892456726531,
      "semi_major_axis_km": 6956.300905844495,
      "eccentricity": 9.31e-05,
      "inclination_deg": 9.9891,
      "raan_deg": 49.2902,
      "arg_perigee_deg": 262.312,
      "mean_anomaly_deg": 97.6988,
      "mean_motion_rev_day": 14.96357009
    },
    {
      "epoch": "2026-03-31T13:46:27.890688Z",
      "apogee_km": 578.8116070218375,
      "perigee_km": 577.5162046671521,
      "latitude_deg": 3.903786910459464e-06,
      "longitude_deg": 13.724647332399405,
      "height_km": 575.2892549747446,
      "semi_major_axis_km": 6956.300905844495,
      "eccentricity": 9.311e-05,
      "inclination_deg": 9.9891,
      "raan_deg": 49.2902,
      "arg_perigee_deg": 262.312,
      "mean_anomaly_deg": 97.6988,
      "mean_motion_rev_day": 14.96357009
    },
    {
      "epoch": "2026-04-01T12:10:11.084736Z",
      "apogee_km": 578.5318081990272,
      "perigee_km": 577.7591043437851,
      "latitude_deg": -9.248585679306374e-06,
      "longitude_deg": 30.080555496662384,
      "height_km": 575.2400891287255,
      "semi_major_axis_km": 6956.282456271406,
      "eccentricity": 5.554e-05,
      "inclination_deg": 9.9886,
      "raan_deg": 42.4959,
      "arg_perigee_deg": 261.6654,
      "mean_anomaly_deg": 98.3496,
      "mean_motion_rev_day": 14.96362962
    },
    {
      "epoch": "2026-04-03T04:09:38.829312Z",
      "apogee_km": 578.7733369995121,
      "perigee_km": 577.3283976557104,
      "latitude_deg": 6.505361865280111e-06,
      "longitude_deg": 136.44396968441592,
      "height_km": 575.2775172193516,
      "semi_major_axis_km": 6956.187867327611,
      "eccentricity": 0.00010386,
      "inclination_deg": 9.9901,
      "raan_deg": 30.3672,
      "arg_perigee_deg": 254.9175,
      "mean_anomaly_deg": 105.0924,
      "mean_motion_rev_day": 14.96393483
    },
    {
      "epoch": "2026-04-06T00:56:40.924320Z",
      "apogee_km": 579.1012095521701,
      "perigee_km": 577.1826678208809,
      "latitude_deg": 1.1855692009397397e-05,
      "longitude_deg": 160.98051276745997,
      "height_km": 575.714871730472,
      "semi_major_axis_km": 6956.278938686525,
      "eccentricity": 0.0001379,
      "inclination_deg": 9.9901,
      "raan_deg": 9.4873,
      "arg_perigee_deg": 236.1472,
      "mean_anomaly_deg": 123.8611,
      "mean_motion_rev_day": 14.96364097
    }
  ]
}